STARLINK-31634          
1 59330U 24057L   26068.34399953 -.00000424  00000+0 -58955-5 0  9993
2 59330  43.0040 189.2481 0001630 278.7256  81.3411 15.27574143109785
TEVEL2-4                
1 63213U 25052D   26068.69417973  .00020990  00000+0  70363-3 0  9998
2 63213  97.4009 325.1237 0004733  95.3468 264.8313 15.30925813 54879
